[
    {
        "Altitude(m)": 622205.8454562906,
        "Argument of Periapsis(deg)": 0.0,
        "Eccentricity": 0.0,
        "Inclination(deg)": 60.0,
        "Latitude(deg)": -52.16237460022674,
        "Longitude(deg)": 152.70029840976332,
        "Mean Anomaly(deg)": 245.4545,
        "RAAN(deg)": 25.0,
        "Satellite Name": "Test1 125",
        "Satellite Number": 125,
        "Semi-Major Axis(m)": 6980739.136638005,
        "Time(s)": 0
    },
    {
        "Altitude(m)": 622344.7524401925,
        "Argument of Periapsis(deg)": 0.00010418945913296404,
        "Eccentricity": 0.0,
        "Inclination(deg)": 60.0,
        "Latitude(deg)": -52.519955226536815,
        "Longitude(deg)": 153.48150846064067,
        "Mean Anomaly(deg)": 246.07460614546184,
        "RAAN(deg)": 24.99957995086026,
        "Satellite Name": "Test1 125",
        "Satellite Number": 125,
        "Semi-Major Axis(m)": 6980739.136638005,
        "Time(s)": 10
    }
]